NORAD_CAT_ID,OBJECT_NAME,OBJECT_TYPE,EPOCH,MEAN_MOTION,ECCENTRICITY,INCLINATION,RA_OF_ASC_NODE,ARG_OF_PERICENTER,MEAN_ANOMALY,BSTAR,MEAN_MOTION_DOT,MEAN_MOTION_DDOT,TLE_LINE0,TLE_LINE1,TLE_LINE2,SEMIMAJOR_AXIS,PERIOD,APOGEE,PERIGEE,DECAYED
56780.0,STARLINK-5963,PAYLOAD,2024-04-05 21:25:29,14.98327696,0.0002969,69.9986,316.6479,266.8155,93.2664,7.6065e-05,8.15e-06,0.0,0 STARLINK-5963,1 56780U 23078P   24096.89270541  .00000815  00000-0  76065-4 0  9995,2 56780  69.9986 316.6479 0002969 266.8155  93.2664 14.98327696 47668,6950.2,96.107,574.129,570.002,0.0
56780.0,STARLINK-5963,PAYLOAD,2024-04-06 00:37:45,14.98328158,0.0002957,69.9985,316.3111,266.8044,93.2777,7.8399e-05,8.42e-06,0.0,0 STARLINK-5963,1 56780U 23078P   24097.02622521  .00000842  00000-0  78399-4 0  9992,2 56780  69.9985 316.3111 0002957 266.8044  93.2777 14.98328158 47424,6950.199,96.107,574.119,570.008,0.0
56780.0,STARLINK-5963,PAYLOAD,2024-04-06 21:27:30,14.98329158,0.0002908,69.9986,314.1227,267.0881,92.9945,2.2617e-05,1.77e-06,0.0,0 STARLINK-5963,1 56780U 23078P   24097.89410681  .00000177  00000-0  22617-4 0  9992,2 56780  69.9986 314.1227 0002908 267.0881  92.9945 14.98329158 47814,6950.195,96.107,574.082,570.039,0.0
56780.0,STARLINK-5963,PAYLOAD,2024-04-07 07:04:19,14.98329415,0.0002901,69.9985,313.1126,267.2617,92.821,1.5437e-05,9.1e-07,0.0,0 STARLINK-5963,1 56780U 23078P   24098.29466689  .00000091  00000-0  15437-4 0  9993,2 56780  69.9985 313.1126 0002901 267.2617  92.8210 14.98329415 47610,6950.195,96.107,574.076,570.043,0.0
56780.0,STARLINK-5963,PAYLOAD,2024-04-07 21:29:32,14.9832698,0.0002793,69.9986,311.5983,265.9432,94.1408,-2.4511e-05,-3.85e-06,0.0,0 STARLINK-5963,1 56780U 23078P   24098.89551030 -.00000385  00000-0 -24511-4 0  9995,2 56780  69.9986 311.5983 0002793 265.9432  94.1408 14.98326980 47701,6950.202,96.107,574.008,570.126,0.0
56780.0,STARLINK-5963,PAYLOAD,2024-04-08 00:41:48,14.98327086,0.0002792,69.9986,311.2616,266.1294,93.9546,-2.2372e-05,-3.6e-06,0.0,0 STARLINK-5963,1 56780U 23078P   24099.02903040 -.00000360  00000-0 -22372-4 0  9999,2 56780  69.9986 311.2616 0002792 266.1294  93.9546 14.98327086 47987,6950.202,96.107,574.007,570.126,0.0
56780.0,STARLINK-5963,PAYLOAD,2024-04-08 07:06:20,14.98330076,0.0002757,69.9987,310.5883,266.23,93.8544,5.16e-06,-3.1e-07,0.0,0 STARLINK-5963,1 56780U 23078P   24099.29606805 -.00000031  00000-0  51600-5 0  9998,2 56780  69.9987 310.5883 0002757 266.2300  93.8544 14.98330076 47762,6950.193,96.107,573.974,570.141,0.0
56780.0,STARLINK-5963,PAYLOAD,2024-04-08 23:07:40,14.98336466,0.0002796,69.9986,308.9045,268.5748,91.5091,7.9821e-05,8.6e-06,0.0,0 STARLINK-5963,1 56780U 23078P   24099.96366031  .00000860  00000-0  79821-4 0  9999,2 56780  69.9986 308.9045 0002796 268.5748  91.5091 14.98336466 47868,6950.173,96.107,573.981,570.095,0.0
56780.0,STARLINK-5963,PAYLOAD,2024-04-09 07:08:20,14.98332198,0.0002935,69.9986,308.062,271.8519,88.2304,1.3944e-05,7.3e-07,0.0,0 STARLINK-5963,1 56780U 23078P   24100.29746354  .00000073  00000-0  13944-4 0  9998,2 56780  69.9986 308.0620 0002935 271.8519  88.2304 14.98332198 47910,6950.186,96.107,574.091,570.011,0.0
56780.0,STARLINK-5963,PAYLOAD,2024-04-09 23:09:41,14.98327063,0.0003075,69.9983,306.377,272.6733,87.4074,-4.3701e-05,-6.14e-06,0.0,0 STARLINK-5963,1 56780U 23078P   24100.96506851 -.00000614  00000-0 -43701-4 0  9995,2 56780  69.9983 306.3770 0003075 272.6733  87.4074 14.98327063 48277,6950.202,96.107,574.204,569.93,0.0
56780.0,STARLINK-5963,PAYLOAD,2024-04-10 13:34:54,14.98333984,0.0003069,69.9992,304.8638,271.5138,88.5669,-4.1101e-05,-5.83e-06,0.0,0 STARLINK-5963,1 56780U 23078P   24101.56590379 -.00000583  00000-0 -41101-4 0  9997,2 56780  69.9992 304.8638 0003069 271.5138  88.5669 14.98333984 48106,6950.181,96.107,574.179,569.913,0.0
56780.0,STARLINK-5963,PAYLOAD,2024-04-10 19:59:26,14.9833364,0.0003057,69.9987,304.1907,271.6956,88.3853,1.1034e-05,3.9e-07,0.0,0 STARLINK-5963,1 56780U 23078P   24101.83294156  .00000039  00000-0  11034-4 0  9997,2 56780  69.9987 304.1907 0003057 271.6956  88.3853 14.98333640 48403,6950.182,96.107,574.171,569.922,0.0
56780.0,STARLINK-5963,PAYLOAD,2024-04-10 21:35:34,14.98333992,0.0003042,69.9983,304.0223,271.7111,88.37,1.1384e-05,4.3e-07,0.0,0 STARLINK-5963,1 56780U 23078P   24101.89970125  .00000043  00000-0  11384-4 0  9993,2 56780  69.9983 304.0223 0003042 271.7111  88.3700 14.98333992 48150,6950.181,96.107,574.16,569.931,0.0
56780.0,STARLINK-5963,PAYLOAD,2024-04-11 13:36:55,14.98326548,0.0002988,69.9982,302.3388,271.5736,88.508,1.7564e-05,1.17e-06,0.0,0 STARLINK-5963,1 56780U 23078P   24102.56730515  .00000117  00000-0  17564-4 0  9993,2 56780  69.9982 302.3388 0002988 271.5736  88.5080 14.98326548 48254,6950.204,96.107,574.145,569.992,0.0
56780.0,STARLINK-5963,PAYLOAD,2024-04-11 20:01:27,14.98328682,0.0002974,69.9986,301.6651,270.9581,89.1237,5.1096e-06,-3.2e-07,0.0,0 STARLINK-5963,1 56780U 23078P   24102.83434461 -.00000032  00000-0  51096-5 0  9990,2 56780  69.9986 301.6651 0002974 270.9581  89.1237 14.98328682 48554,6950.197,96.107,574.129,569.995,0.0
56780.0,STARLINK-5963,PAYLOAD,2024-04-11 21:37:35,14.98328599,0.0002972,69.9986,301.4968,270.9882,89.0936,4.0184e-06,-4.5e-07,0.0,0 STARLINK-5963,1 56780U 23078P   24102.90110473 -.00000045  00000-0  40184-5 0  9992,2 56780  69.9986 301.4968 0002972 270.9882  89.0936 14.98328599 48300,6950.197,96.107,574.128,569.997,0.0
56780.0,STARLINK-5963,PAYLOAD,2024-04-12 13:38:55,14.98331326,0.0002946,69.9986,299.8134,271.0629,89.0193,-1.4399e-05,-2.65e-06,0.0,0 STARLINK-5963,1 56780U 23078P   24103.56870360 -.00000265  00000-0 -14399-4 0  9996,2 56780  69.9986 299.8134 0002946 271.0629  89.0193 14.98331326 48405,6950.189,96.107,574.101,570.006,0.0
56780.0,STARLINK-5963,PAYLOAD,2024-04-12 15:15:06,14.98302033,0.0003907,69.9986,299.6451,288.9593,71.1142,-0.00032945,-4.019e-05,0.0,0 STARLINK-5963,1 56780U 23078P   24103.63549004 -.00004019  00000-0 -32945-3 0  9999,2 56780  69.9986 299.6451 0003907 288.9593  71.1142 14.98302033 48678,6950.279,96.109,574.86,569.429,0.0
56780.0,STARLINK-5963,PAYLOAD,2024-04-12 21:39:38,14.98300894,0.0002986,69.9986,298.9719,270.672,89.4097,-0.00033049,-4.031e-05,0.0,0 STARLINK-5963,1 56780U 23078P   24103.90253362 -.00004031  00000-0 -33049-3 0  9998,2 56780  69.9986 298.9719 0002986 270.6720  89.4097 14.98300894 48453,6950.283,96.109,574.223,570.073,0.0
56780.0,STARLINK-5963,PAYLOAD,2024-04-13 13:40:59,14.98311291,0.000411,69.9969,297.2863,274.0703,85.9986,-0.00012081,-1.534e-05,0.0,0 STARLINK-5963,1 56780U 23078P   24104.57012824 -.00001534  00000-0 -12081-3 0  9996,2 56780  69.9969 297.2863 0004110 274.0703  85.9986 14.98311291 48558,6950.251,96.108,574.972,569.259,0.0
56780.0,STARLINK-5963,PAYLOAD,2024-04-13 20:05:30,14.98321192,0.0003026,69.9989,296.6153,272.5025,87.5787,-1.6283e-05,-2.87e-06,0.0,0 STARLINK-5963,1 56780U 23078P   24104.83716276 -.00000287  00000-0 -16283-4 0  9990,2 56780  69.9989 296.6153 0003026 272.5025  87.5787 14.98321192 48851,6950.22,96.108,574.188,569.982,0.0
56780.0,STARLINK-5963,PAYLOAD,2024-04-13 21:41:38,14.98322191,0.0002932,69.9992,296.4475,269.5921,90.4902,-2.1462e-06,-1.19e-06,0.0,0 STARLINK-5963,1 56780U 23078P   24104.90392170 -.00000119  00000-0 -21462-5 0  9991,2 56780  69.9992 296.4475 0002932 269.5921  90.4902 14.98322191 48601,6950.217,96.108,574.12,570.044,0.0
56780.0,STARLINK-5963,PAYLOAD,2024-04-14 20:07:31,14.98319526,0.0003189,69.9985,294.0904,274.0356,86.0439,0.00036507,4.264e-05,0.0,0 STARLINK-5963,1 56780U 23078P   24105.83855583  .00004264  00000-0  36507-3 0  9993,2 56780  69.9985 294.0904 0003189 274.0356  86.0439 14.98319526 49001,6950.225,96.108,574.307,569.874,0.0
56780.0,STARLINK-5963,PAYLOAD,2024-04-14 21:43:39,14.98320301,0.0003017,69.9991,293.9226,269.9928,90.0886,0.00037384,4.369e-05,0.0,0 STARLINK-5963,1 56780U 23078P   24105.90531534  .00004369  00000-0  37384-3 0  9998,2 56780  69.9991 293.9226 0003017 269.9928  90.0886 14.98320301 48756,6950.223,96.108,574.185,569.991,0.0
56780.0,STARLINK-5963,PAYLOAD,2024-04-15 12:08:51,14.9834068,0.0003389,69.999,292.4076,270.9851,89.092,0.00014531,1.642e-05,0.0,0 STARLINK-5963,1 56780U 23078P   24106.50614811  .00001642  00000-0  14531-3 0  9995,2 56780  69.9990 292.4076 0003389 270.9851  89.0920 14.98340680 49100,6950.16,96.106,574.38,569.669,0.0
56780.0,STARLINK-5963,PAYLOAD,2024-04-15 13:44:59,14.98340623,0.0003317,69.9986,292.2382,270.893,89.1848,0.0001674,1.905e-05,0.0,0 STARLINK-5963,1 56780U 23078P   24106.57290654  .00001905  00000-0  16740-3 0  9993,2 56780  69.9986 292.2382 0003317 270.8930  89.1848 14.98340623 48859,6950.16,96.106,574.33,569.72,0.0
56780.0,STARLINK-5963,PAYLOAD,2024-04-15 21:45:38,14.98344465,0.0003111,69.999,291.397,267.0983,92.982,0.00019598,2.247e-05,0.0,0 STARLINK-5963,1 56780U 23078P   24106.90670035  .00002247  00000-0  19598-3 0  9999,2 56780  69.9990 291.3970 0003111 267.0983  92.9820 14.98344465 48901,6950.148,96.106,574.175,569.851,0.0
56780.0,STARLINK-5963,PAYLOAD,2024-04-16 13:47:00,14.98335249,0.00033,69.9986,289.7134,273.3726,86.7055,-0.00011103,-1.418e-05,0.0,0 STARLINK-5963,1 56780U 23078P   24107.57430930 -.00001418  00000-0 -11103-3 0  9996,2 56780  69.9986 289.7134 0003300 273.3726  86.7055 14.98335249 49007,6950.177,96.107,574.335,569.748,0.0
56780.0,STARLINK-5963,PAYLOAD,2024-04-16 20:11:31,14.9834697,0.0003263,69.9984,289.04,281.4708,78.6084,1.4466e-05,8e-07,0.0,0 STARLINK-5963,1 56780U 23078P   24107.84133802  .00000080  00000-0  14466-4 0  9992,2 56780  69.9984 289.0400 0003263 281.4708  78.6084 14.98346970 49300,6950.14,96.106,574.273,569.738,0.0
56780.0,STARLINK-5963,PAYLOAD,2024-04-16 21:47:39,14.98343551,0.0003092,69.9989,288.8716,284.1825,75.899,3.5828e-05,3.35e-06,0.0,0 STARLINK-5963,1 56780U 23078P   24107.90809953  .00000335  00000-0  35828-4 0  9994,2 56780  69.9989 288.8716 0003092 284.1825  75.8990 14.98343551 49051,6950.151,96.106,574.165,569.867,0.0
